O3B MPOWER F1           
1 54755U 22174A   23288.52036069 -.00000015  00000+0  00000+0 0  9991
2 54755   0.0502  18.7113 0005139 200.6029 219.0838  5.00118416 16557
